IRNSS-1A----------------
1 39199U 13034A   21273.07607316  .00000103  00000-0  00000+0 0  9990
2 39199  31.8519  89.3788 0020395 177.9899 184.2090  1.00268217 30398
IRNSS-1B----------------
1 39635U 14017A   21272.57368076  .00000111  00000-0  00000+0 0  9997
2 39635  29.2787 269.4448 0020918 190.2284 170.4308  1.00274781 27547
IRNSS-1C----------------
1 40269U 14061A   21273.08165514 -.00000163  00000-0  00000+0 0  9998
2 40269   2.4529 142.0849 0020527   5.8084 333.5732  1.00274324 25561
IRNSS-1D----------------
1 40547U 15018A   21271.43640865 -.00000271  00000-0  00000-0 0  9995
2 40547  29.1152 269.5209 0018958 189.8968 176.9066  1.00271583 23721
IRNSS-1E----------------
1 41241U 16003A   21270.93400155 -.00000286  00000-0  00000-0 0  9998
2 41241  29.3948  88.7287 0021473 175.4256 190.8708  1.00273749 20802
IRNSS-1F----------------
1 41384U 16015A   21272.56914542  .00000158  00000-0  00000-0 0  9997
2 41384   1.9661 178.5656 0017528 187.2861 240.1745  1.00280700 20406
IRNSS-1G----------------
1 41469U 16027A   21272.58850782 -.00000336  00000-0  00000-0 0  9990
2 41469   1.9306 182.0906 0003461 313.2329 214.5727  1.00275773 19918
IRNSS-1I----------------
1 43286U 18035A   21269.63073072  .00000103  00000-0  00000-0 0  9992
2 43286  29.2952 101.6703 0020232 178.2501   7.9037  1.00275919 12783
